satname,norad_id,inclination_deg,eccentricity,mean_motion_rev_per_day,perigee_km,apogee_km,l1,l2
STARLINK-1319,45379,53.0543,0.0002266,15.37641603,451.5374882493379,454.6333982606211,1 45379U 20019V   25319.27538448  .00019127  00000+0  51918-3 0  9997,2 45379  53.0543 317.1896 0002266  68.4798 291.6446 15.37641603312535
STARLINK-1266,45383,53.0568,0.0001265,15.06386006,546.3783858466468,548.1305098829562,1 45383U 20019Z   25319.23442347  .00000683  00000+0  64729-4 0  9992,2 45383  53.0568 300.4305 0001265  88.7689 271.3445 15.06386006312756
STARLINK-1267,45384,53.054,0.000135,15.06413673,546.234736081431,548.1045688776012,1 45384U 20019AA  25319.68420194  .00015597  00000+0  10633-2 0  9991,2 45384  53.0540 299.0666 0001350  88.7318 271.3826 15.06413673312815
STARLINK-1272,45386,53.0535,0.0005848,15.35989863,453.984146409025,461.9796710846949,1 45386U 20019AC  25319.79760022  .00036389  00000+0  10290-2 0  9993,2 45386  53.0535 292.7051 0005848  54.1689 305.9856 15.35989863312912
STARLINK-1274,45387,53.0359,0.0003853,15.30868403,470.58023684146974,475.859892595543,1 45387U 20019AD  25319.22234560  .00013677  00000+0  46337-3 0  9992,2 45387  53.0359 283.2779 0003853   2.9585 357.1437 15.30868403312992
STARLINK-1280,45388,53.0542,0.0005661,15.41686545,437.2710492217011,444.99182494616707,1 45388U 20019AE  25319.68578572  .00023318  00000+0  55203-3 0  9992,2 45388  53.0542 312.1134 0005661  40.3278 319.8145 15.41686545312626
STARLINK-1283,45389,53.0529,0.0006925,15.32244331,464.37612923733104,473.8595772090448,1 45389U 20019AF  25319.21633059  .00014483  00000+0  46933-3 0  9997,2 45389  53.0529 294.4000 0006925  52.7167 307.4463 15.32244331312847
STARLINK-1284,45390,53.055,0.0001319,15.06395209,546.312786290584,548.1396971137438,1 45390U 20019AG  25319.63618660  .00000321  00000+0  40479-4 0  9992,2 45390  53.0550 298.6290 0001319  83.7022 276.4117 15.06395209312816
STARLINK-1292,45394,53.0379,0.0002747,16.17889074,223.47551325634868,227.10343576144442,1 45394U 20019AL  25319.16695149  .01414179  16568-2  86549-3 0  9998,2 45394  53.0379 240.4878 0002747 139.4038 220.7204 16.17889074313325
STARLINK-1297,45395,53.0541,0.0001538,15.06380827,546.2051933991488,548.335448691103,1 45395U 20019AM  25319.27497417  .00002306  00000+0  17374-3 0  9994,2 45395  53.0541 300.2473 0001538  85.0760 275.0405 15.06380827311949
STARLINK-1307,45397,53.0578,0.0002485,15.06395779,545.5035423941099,548.945447056989,1 45397U 20019AP  25319.20124773 -.00009685  00000+0 -63221-3 0  9992,2 45397  53.0578 300.5768 0002485 112.0814 248.0439 15.06395779312573
STARLINK-1255,45399,53.0499,0.0005232,15.3236564,465.1741806641576,472.3387699967434,1 45399U 20019AR  25319.22445420  .00015651  00000+0  50436-3 0  9993,2 45399  53.0499 285.4403 0005232  62.5939 297.5593 15.32365640312779
STARLINK-1260,45404,53.0535,0.0001387,15.06387438,546.2895077414969,548.2106101116424,1 45404U 20019AW  25319.20218750  .00010368  00000+0  71417-3 0  9994,2 45404  53.0535 290.5710 0001387  88.4246 271.6902 15.06387438312609
STARLINK-1263,45405,53.0551,0.0001342,15.06371956,546.3681167813938,548.2269034039018,1 45405U 20019AX  25318.25859038 -.00004037  00000+0 -25246-3 0  9996,2 45405  53.0551 294.8101 0001342 101.7196 258.3943 15.06371956312462
STARLINK-1265,45406,53.0539,0.0001238,15.0638361,546.4044270127715,548.1191557535167,1 45406U 20019AY  25319.19480741  .00002866  00000+0  21128-3 0  9993,2 45406  53.0539 290.6083 0001238  83.8936 276.2194 15.06383610312601
STARLINK-1278,45408,53.0543,0.0005389,15.35087726,456.9745090978231,464.34536443627076,1 45408U 20019BA  25319.59857981  .00018707  00000+0  55110-3 0  9992,2 45408  53.0543 313.6597 0005389  37.0127 323.1246 15.35087726312328
STARLINK-1296,45412,53.0547,0.000198,15.06398983,545.8434552669269,548.5858945301861,1 45412U 20019BE  25319.19848330  .00011981  00000+0  82188-3 0  9993,2 45412  53.0547 290.5887 0001980  90.4167 269.7049 15.06398983312607
STARLINK-1298,45413,53.047,0.0008753,15.54996527,396.22792862196184,408.0975213204956,1 45413U 20019BF  25318.85199851  .00047649  00000+0  70006-3 0  9999,2 45413  53.0470 263.4184 0008753  13.0428 347.0807 15.54996527313051
STARLINK-1309,45414,53.055,0.0001553,15.0638685,546.1763481973894,548.3273739776432,1 45414U 20019BG  25319.21323264 -.00002177  00000+0 -12735-3 0  9992,2 45414  53.0550 290.5216 0001553 107.3012 252.8147 15.06386850312592
STARLINK-1316,45415,53.0565,0.0001832,15.06398455,545.9475684214995,548.4850178681072,1 45415U 20019BH  25319.63710955  .00002356  00000+0  17700-3 0  9990,2 45415  53.0565 288.6220 0001832  98.2445 261.8752 15.06398455312697
STARLINK-1318,45416,53.0497,0.000586,15.62460956,376.59030869057915,384.5114909091435,1 45416U 20019BJ  25319.53909632  .00069971  00000+0  77166-3 0  9990,2 45416  53.0497 250.8276 0005860  86.8635 273.3049 15.62460956313206
STARLINK-1286,45417,53.0539,0.0003554,15.3750425,451.06432115999996,455.92024325379225,1 45417U 20019BK  25319.28996913  .00027611  00000+0  74727-3 0  9996,2 45417  53.0539 315.4009 0003554  48.0014 312.1290 15.37504250312549
STARLINK-1308,45419,53.0543,0.0001106,15.06390323,546.4752698775383,548.0071635390732,1 45419U 20019BM  25319.27314257  .00013091  00000+0  89634-3 0  9992,2 45419  53.0543 320.2536 0001106  94.0310 266.0805 15.06390323312220
STARLINK-1329,45531,53.0552,0.0001172,15.06370447,546.4904736410408,548.113796574311,1 45531U 20025A   25318.84372437 -.00002795  00000+0 -16898-3 0  9993,2 45531  53.0552 262.1807 0001172  93.7768 266.3355 15.06370447307789
STARLINK-1338,45532,53.0533,0.0002043,15.06376236,545.8695285427093,548.6992557235353,1 45532U 20025B   25318.85479206  .00010563  00000+0  72743-3 0  9998,2 45532  53.0533 262.1307 0002043  96.7245 263.3976 15.06376236307783
STARLINK-1350,45535,53.0738,0.0002344,15.3283977,465.73992475820523,468.94908648804176,1 45535U 20025E   25319.41931926  .00013399  00000+0  42734-3 0  9993,2 45535  53.0738 208.4672 0002344  85.6947 274.4321 15.32839770308617
STARLINK-1362,45538,53.0536,0.0001992,15.06417818,545.7774303181959,548.536467427426,1 45538U 20025H   25319.81580767 -.00015165  00000+0 -10008-2 0  9996,2 45538  53.0536 257.5364 0001992  93.7217 266.4000 15.06417818307932
STARLINK-1368,45540,53.0541,0.000196,15.06428279,545.7675369019498,548.4822395621377,1 45540U 20025K   25319.82049513  .00017131  00000+0  11653-2 0  9999,2 45540  53.0541 257.7973 0001960  94.4864 265.6348 15.06428279307928
STARLINK-1371,45542,53.055,0.0001054,15.06374602,546.5594603013988,548.0193401865699,1 45542U 20025M   25319.85735223  .00006448  00000+0  45170-3 0  9995,2 45542  53.0550 257.6279 0001054  88.5268 271.5842 15.06374602307930
STARLINK-1372,45543,53.0543,0.0001401,15.06400281,546.2404555015737,548.180937926194,1 45543U 20025N   25319.82787715  .00015815  00000+0  10782-2 0  9994,2 45543  53.0543 257.7639 0001401 104.9859 255.1285 15.06400281307021
STARLINK-1373,45544,53.0532,0.0001498,15.06405832,546.1562692194793,548.2310982923327,1 45544U 20025P   25319.84627861 -.00007247  00000+0 -46800-3 0  9995,2 45544  53.0532 257.6797 0001498  90.9378 269.1782 15.06405832307934
STARLINK-1294,45551,53.0479,0.0007069,15.6253657,375.55529219553773,385.1104168758802,1 45551U 20025W   25318.83677573  .00080883  00000+0  88698-3 0  9992,2 45551  53.0479 189.7645 0007069 104.3377 255.8421 15.62536570308803
STARLINK-1325,45554,53.0529,0.0002924,15.66884965,365.85054428136664,369.7955817262109,1 45554U 20025Z   25319.91671295  .00194001  00000+0  17607-2 0  9999,2 45554  53.0529 177.1514 0002924 218.5451  59.3224 15.66884965  5938
STARLINK-1327,45555,53.0552,0.000151,15.06404671,546.1515165624705,548.2429675035646,1 45555U 20025AA  25319.48692395  .00012460  00000+0  85378-3 0  9995,2 45555  53.0552 239.2937 0001510  91.1716 268.9446 15.06404671308153
STARLINK-1356,45564,53.0533,0.0001291,15.06402306,546.310428803009,548.0985519758287,1 45564U 20025AK  25318.76079931  .00019161  00000+0  13017-2 0  9995,2 45564  53.0533 242.5526 0001291  82.9440 277.1696 15.06402306308041
STARLINK-1357,45565,53.0613,0.0009478,15.3472519,455.2540452032563,468.21971012575796,1 45565U 20025AL  25319.44583052  .00012670  00000+0  38118-3 0  9994,2 45565  53.0613 221.6725 0009478  63.8823 296.3153 15.34725190308409
STARLINK-1361,45567,53.0545,0.0001634,15.06404844,546.0651122872132,548.3283113442349,1 45567U 20025AN  25319.77441049  .00010904  00000+0  74968-3 0  9992,2 45567  53.0545 238.0017 0001634  82.3058 277.8117 15.06404844308204
STARLINK-1363,45568,53.0525,0.0005578,15.4403078,430.42748602407755,438.02735977426346,1 45568U 20025AP  25318.80014541  .00024196  00000+0  52925-3 0  9996,2 45568  53.0525 236.3511 0005578 111.1649 248.9953 15.44030780308136
STARLINK-1366,45569,53.0526,0.000521,15.42357065,435.6030916390646,442.70670979961324,1 45569U 20025AQ  25319.48706838  .00023094  00000+0  53482-3 0  9994,2 45569  53.0526 232.6872 0005210 106.8641 253.2935 15.42357065308240
STARLINK-1376,45570,53.0549,0.0001373,15.06378937,546.3252545313317,548.2269729723685,1 45570U 20025AR  25319.50534721 -.00002356  00000+0 -13938-3 0  9991,2 45570  53.0549 239.2133 0001373  88.8633 271.2513 15.06378937308159
STARLINK-1320,45572,53.0563,0.0010068,15.44863744,424.92223996901157,438.63468574502076,1 45572U 20025AT  25319.60914847  .00032446  00000+0  68542-3 0  9997,2 45572  53.0563 178.1066 0010068  76.7554 283.4574 15.44863744309040
STARLINK-1321,45573,53.0535,0.0001526,15.06440614,546.0302954790413,548.1438738696834,1 45573U 20025AU  25319.75690502  .00019490  00000+0  13223-2 0  9992,2 45573  53.0535 228.0831 0001526  96.0575 264.0588 15.06440614308035
STARLINK-1328,45576,53.0487,0.0010729,15.74138384,339.8686383625882,354.29961785928936,1 45576U 20025AX  25319.91671295  .00050530  00000+0  34687-3 0  9999,2 45576  53.0487 196.5362 0010729  96.6514 275.3067 15.74138384  6019
